NORAD_CAT_ID,OBJECT_NAME,OBJECT_TYPE,EPOCH,MEAN_MOTION,ECCENTRICITY,INCLINATION,RA_OF_ASC_NODE,ARG_OF_PERICENTER,MEAN_ANOMALY,BSTAR,MEAN_MOTION_DOT,MEAN_MOTION_DDOT,TLE_LINE0,TLE_LINE1,TLE_LINE2,SEMIMAJOR_AXIS,PERIOD,APOGEE,PERIGEE,DECAYED
53722.0,STARLINK-4700,PAYLOAD,2023-11-14 12:45:07,15.08835937,0.0001699,53.218,92.5821,107.8514,252.2664,4.8816e-05,4.89e-06,0.0,0 STARLINK-4700,1 53722U 22107Y   23318.53134184  .00000489  00000-0  48816-4 0  9999,2 53722  53.2180  92.5821 0001699 107.8514 252.2664 15.08835937 66668,6917.893,95.438,540.933,538.582,0.0
53722.0,STARLINK-4700,PAYLOAD,2023-11-14 19:06:40,15.08838,0.0001402,53.2179,91.3926,88.5689,271.5464,4.5704e-06,-2.15e-06,0.0,0 STARLINK-4700,1 53722U 22107Y   23318.79629970 -.00000215  00000-0  45704-5 0  9991,2 53722  53.2179  91.3926 0001402  88.5689 271.5464 15.08838000 66250,6917.887,95.438,540.721,538.782,0.0
53722.0,STARLINK-4700,PAYLOAD,2023-11-15 12:35:54,15.08837668,0.0001506,53.2173,88.1227,90.5728,269.5436,-1.6356e-05,-5.48e-06,0.0,0 STARLINK-4700,1 53722U 22107Y   23319.52494139 -.00000548  00000-0 -16356-4 0  9990,2 53722  53.2173  88.1227 0001506  90.5728 269.5436 15.08837668 66811,6917.888,95.438,540.794,538.711,0.0
53722.0,STARLINK-4700,PAYLOAD,2023-11-15 15:46:41,15.08840808,0.0001453,53.2167,87.5281,91.4774,268.6384,3.769e-05,3.12e-06,0.0,0 STARLINK-4700,1 53722U 22107Y   23319.65741982  .00000312  00000-0  37690-4 0  9996,2 53722  53.2167  87.5281 0001453  91.4774 268.6384 15.08840808 66833,6917.878,95.438,540.748,538.738,0.0
53722.0,STARLINK-4700,PAYLOAD,2023-11-16 01:18:58,15.08860218,0.0001617,53.2183,85.7427,85.8866,274.2311,0.00039391,5.99e-05,0.0,0 STARLINK-4700,1 53722U 22107Y   23320.05484716  .00005990  00000-0  39391-3 0  9997,2 53722  53.2183  85.7427 0001617  85.8866 274.2311 15.08860218 66890,6917.819,95.436,540.802,538.565,0.0
53722.0,STARLINK-4700,PAYLOAD,2023-11-17 12:17:28,15.08836997,0.0001368,53.2186,79.201,84.3106,275.8042,-4.78e-05,-1.049e-05,0.0,0 STARLINK-4700,1 53722U 22107Y   23321.51214072 -.00001049  00000-0 -47800-4 0  9993,2 53722  53.2186  79.2010 0001368  84.3106 275.8042 15.08836997 66663,6917.89,95.438,540.701,538.808,0.0
53722.0,STARLINK-4700,PAYLOAD,2023-11-17 17:03:38,15.08837427,0.0001275,53.2187,78.3082,84.9484,275.1653,3.5863e-05,2.83e-06,0.0,0 STARLINK-4700,1 53722U 22107Y   23321.71086577  .00000283  00000-0  35863-4 0  9995,2 53722  53.2187  78.3082 0001275  84.9484 275.1653 15.08837427 67149,6917.888,95.438,540.635,538.871,0.0
53722.0,STARLINK-4700,PAYLOAD,2023-11-18 13:43:39,15.08835526,0.0001037,53.2172,74.4435,92.5133,267.5977,0.00013651,1.885e-05,0.0,0 STARLINK-4700,1 53722U 22107Y   23322.57198489  .00001885  00000-0  13651-3 0  9995,2 53722  53.2172  74.4435 0001037  92.5133 267.5977 15.08835526 67270,6917.894,95.438,540.476,539.042,0.0
53722.0,STARLINK-4700,PAYLOAD,2023-11-19 13:34:26,15.08841937,0.0001133,53.2175,69.984,84.9923,275.1199,0.00014239,1.979e-05,0.0,0 STARLINK-4700,1 53722U 22107Y   23323.56558361  .00001979  00000-0  14239-3 0  9991,2 53722  53.2175  69.9840 0001133  84.9923 275.1199 15.08841937 67422,6917.874,95.437,540.523,538.956,0.0
53722.0,STARLINK-4700,PAYLOAD,2023-11-20 07:03:40,15.08843,0.0001255,53.2176,66.7135,87.2183,272.8952,9.2667e-05,1.187e-05,0.0,0 STARLINK-4700,1 53722U 22107Y   23324.29422440  .00001187  00000-0  92667-4 0  9993,2 53722  53.2176  66.7135 0001255  87.2183 272.8952 15.08843000 67080,6917.871,95.437,540.604,538.868,0.0
53722.0,STARLINK-4700,PAYLOAD,2023-11-20 13:25:13,15.08845657,0.0001301,53.2183,65.5246,88.8376,271.2766,0.00010764,1.426e-05,0.0,0 STARLINK-4700,1 53722U 22107Y   23324.55918217  .00001426  00000-0  10764-3 0  9997,2 53722  53.2183  65.5246 0001301  88.8376 271.2766 15.08845657 67571,6917.863,95.437,540.628,538.828,0.0
53722.0,STARLINK-4700,PAYLOAD,2023-11-21 10:05:14,15.08842187,0.0001327,53.2183,61.6595,86.7588,273.3556,6.0736e-05,6.79e-06,0.0,0 STARLINK-4700,1 53722U 22107Y   23325.42030449  .00000679  00000-0  60736-4 0  9990,2 53722  53.2183  61.6595 0001327  86.7588 273.3556 15.08842187 67255,6917.874,95.437,540.657,538.821,0.0
53722.0,STARLINK-4700,PAYLOAD,2023-11-21 13:16:00,15.08847663,0.000128,53.219,61.0645,95.2226,264.8912,5.3246e-05,5.6e-06,0.0,0 STARLINK-4700,1 53722U 22107Y   23325.55278087  .00000560  00000-0  53246-4 0  9993,2 53722  53.2190  61.0645 0001280  95.2226 264.8912 15.08847663 67722,6917.857,95.437,540.607,538.836,0.0
53722.0,STARLINK-4700,PAYLOAD,2023-11-21 16:26:46,15.08849578,0.000132,53.2188,60.468,99.5954,260.5187,0.00011332,1.516e-05,0.0,0 STARLINK-4700,1 53722U 22107Y   23325.68525751  .00001516  00000-0  11332-3 0  9991,2 53722  53.2188  60.4680 0001320  99.5954 260.5187 15.08849578 67747,6917.851,95.437,540.629,538.803,0.0
53722.0,STARLINK-4700,PAYLOAD,2023-11-22 11:31:23,15.08850283,0.0001569,53.2184,56.9018,88.5995,271.5177,0.00017768,2.542e-05,0.0,0 STARLINK-4700,1 53722U 22107Y   23326.48013858  .00002542  00000-0  17768-3 0  9999,2 53722  53.2184  56.9018 0001569  88.5995 271.5177 15.08850283 67416,6917.849,95.437,540.799,538.629,0.0
53722.0,STARLINK-4700,PAYLOAD,2023-11-22 13:06:46,15.08854033,0.0001636,53.2186,56.6043,94.2299,265.888,0.00022891,3.358e-05,0.0,0 STARLINK-4700,1 53722U 22107Y   23326.54637639  .00003358  00000-0  22891-3 0  9994,2 53722  53.2186  56.6043 0001636  94.2299 265.8880 15.08854033 67873,6917.837,95.437,540.834,538.571,0.0
53722.0,STARLINK-4700,PAYLOAD,2023-11-23 11:22:11,15.08842675,0.0001859,53.2194,52.4421,112.129,247.9899,5.8028e-05,6.36e-06,0.0,0 STARLINK-4700,1 53722U 22107Y   23327.47374054  .00000636  00000-0  58028-4 0  9994,2 53722  53.2194  52.4421 0001859 112.1290 247.9899 15.08842675 67560,6917.872,95.437,541.023,538.451,0.0
53722.0,STARLINK-4700,PAYLOAD,2023-11-23 12:57:34,15.08843822,0.0001617,53.2184,52.1415,106.8708,253.2461,6.9809e-05,8.23e-06,0.0,0 STARLINK-4700,1 53722U 22107Y   23327.53997881  .00000823  00000-0  69809-4 0  9997,2 53722  53.2184  52.1415 0001617 106.8708 253.2461 15.08843822 68027,6917.869,95.437,540.852,538.615,0.0
53722.0,STARLINK-4700,PAYLOAD,2023-11-24 11:12:59,15.0882479,0.0001798,53.2197,47.9794,95.2602,264.8595,-0.00018302,-3.198e-05,0.0,0 STARLINK-4700,1 53722U 22107Y   23328.46735231 -.00003198  00000-0 -18302-3 0  9990,2 53722  53.2197  47.9794 0001798  95.2602 264.8595 15.08824790 67711,6917.927,95.439,541.036,538.548,0.0
53722.0,STARLINK-4700,PAYLOAD,2023-11-24 14:23:45,15.08830395,0.0001732,53.2193,47.3848,91.6678,268.4513,-0.00010334,-1.932e-05,0.0,0 STARLINK-4700,1 53722U 22107Y   23328.59983296 -.00001932  00000-0 -10334-3 0  9991,2 53722  53.2193  47.3848 0001732  91.6678 268.4513 15.08830395 68182,6917.91,95.438,540.973,538.577,0.0
53722.0,STARLINK-4700,PAYLOAD,2023-11-25 14:14:32,15.0886141,0.0001809,53.2196,42.9222,90.5905,269.5294,0.00071681,0.00011145,0.0,0 STARLINK-4700,1 53722U 22107Y   23329.59342872  .00011145  00000-0  71681-3 0  9998,2 53722  53.2196  42.9222 0001809  90.5905 269.5294 15.08861410 68335,6917.815,95.436,540.931,538.429,0.0
53722.0,STARLINK-4700,PAYLOAD,2023-11-26 10:54:32,15.08861937,0.0002498,53.2202,39.059,129.1504,230.971,0.00039888,6.069e-05,0.0,0 STARLINK-4700,1 53722U 22107Y   23330.45453940  .00006069  00000-0  39888-3 0  9996,2 53722  53.2202  39.0590 0002498 129.1504 230.9710 15.08861937 68011,6917.813,95.436,541.406,537.95,0.0
53722.0,STARLINK-4700,PAYLOAD,2023-11-26 12:29:55,15.08865117,0.000181,53.2187,38.7652,80.4243,279.6954,0.00048532,7.45e-05,0.0,0 STARLINK-4700,1 53722U 22107Y   23330.52078220  .00007450  00000-0  48532-3 0  9999,2 53722  53.2187  38.7652 0001810  80.4243 279.6954 15.08865117 68478,6917.804,95.436,540.921,538.416,0.0
53722.0,STARLINK-4700,PAYLOAD,2023-11-27 04:23:48,15.08820905,0.0001827,53.22,35.7898,95.4234,264.6966,-0.00050491,-8.311e-05,0.0,0 STARLINK-4700,1 53722U 22107Y   23331.18319463 -.00008311  00000-0 -50491-3 0  9995,2 53722  53.2200  35.7898 0001827  95.4234 264.6966 15.08820905 68122,6917.939,95.439,541.068,538.54,0.0
53722.0,STARLINK-4700,PAYLOAD,2023-11-27 09:09:57,15.08818302,0.0001772,53.2204,34.8926,104.0018,256.1171,-0.00044667,-7.386e-05,0.0,0 STARLINK-4700,1 53722U 22107Y   23331.38191978 -.00007386  00000-0 -44667-3 0  9995,2 53722  53.2204  34.8926 0001772 104.0018 256.1171 15.08818302 68609,6917.947,95.439,541.038,538.586,0.0
53722.0,STARLINK-4700,PAYLOAD,2023-11-28 10:36:08,15.08846331,0.0002123,53.2197,30.1413,81.4107,278.7126,0.001278,0.00020114,0.0,0 STARLINK-4700,1 53722U 22107Y   23332.44176957  .00020114  00000-0  12780-2 0  9995,2 53722  53.2197  30.1413 0002123  81.4107 278.7126 15.08846331 68319,6917.861,95.437,541.195,538.257,0.0
53722.0,STARLINK-4700,PAYLOAD,2023-11-28 13:46:54,15.08863893,0.0001925,53.2191,29.5431,85.4957,274.6255,0.0014693,0.00023189,0.0,0 STARLINK-4700,1 53722U 22107Y   23332.57424496  .00023189  00000-0  14693-2 0  9993,2 53722  53.2191  29.5431 0001925  85.4957 274.6255 15.08863893 68782,6917.807,95.436,541.004,538.341,0.0
53722.0,STARLINK-4700,PAYLOAD,2023-11-29 04:05:22,15.08864724,0.0001553,53.219,26.8685,68.2362,291.8795,0.00086283,0.0001348,0.0,0 STARLINK-4700,1 53722U 22107Y   23333.17040214  .00013480  00000-0  86283-3 0  9990,2 53722  53.2190  26.8685 0001553  68.2362 291.8795 15.08864724 68423,6917.805,95.436,540.744,538.595,0.0
53722.0,STARLINK-4700,PAYLOAD,2023-11-29 08:51:31,15.08867313,0.000176,53.2188,25.976,76.0918,284.027,0.0014318,0.0002259,0.0,0 STARLINK-4700,1 53722U 22107Y   23333.36911965  .00022590  00000-0  14318-2 0  9992,2 53722  53.2188  25.9760 0001760  76.0918 284.0270 15.08867313 68900,6917.797,95.436,540.879,538.444,0.0
53722.0,STARLINK-4700,PAYLOAD,2023-11-30 03:56:09,15.08863417,0.0001776,53.2186,22.4076,98.4652,261.6541,0.0017265,0.00027314,0.0,0 STARLINK-4700,1 53722U 22107Y   23334.16399946  .00027314  00000-0  17265-2 0  9993,2 53722  53.2186  22.4076 0001776  98.4652 261.6541 15.08863417 68576,6917.809,95.436,540.902,538.445,0.0
